{"type":"FeatureCollection","features":[{"type":"Feature","properties":{},"geometry":{"type":"LineString","coordinates":[[7.889127396047115,47.98905808478594],[7.889127396047115,47.98905816860497],[7.889127396047115,47.98905900679529],[7.889132257550955,47.98905808478594],[7.889168299734592,47.989051043987274],[7.889200486242771,47.98904727213085],[7.889311295002699,47.98903310671449],[7.8894212655723095,47.98901952803135],[7.889494355767965,47.98901508562267],[7.8897985350340605,47.989001674577594],[7.889835750684142,47.98900200985372],[7.889903811737895,47.988990526646376],[7.89011369459331,47.988964039832354],[7.890181755647063,47.98897862434387],[7.890202458947897,47.98898734152317],[7.890253085643053,47.98904534429312],[7.890285020694137,47.98912312835455],[7.890309076756239,47.989203007891774],[7.8903203923255205,47.98925656825304],[7.89034528657794,47.98932949081063],[7.890352662652731,47.98937198705971],[7.890384262427688,47.989462008699775],[7.890467997640371,47.9896145593375],[7.890477301552892,47.98963685519993],[7.890509236603975,47.98970642499626],[7.890519797801971,47.989729810506105],[7.890573274344206,47.989835338667035],[7.890584086999297,47.989860316738486],[7.8905904572457075,47.98987800255418],[7.890661954879761,47.99006760120392],[7.890672516077757,47.99008679576218],[7.890716185793281,47.990222750231624],[7.890758262947202,47.99033984541893],[7.890781816095114,47.99040254205465],[7.890795394778252,47.99042341299355],[7.8908204566687346,47.990440260618925],[7.890897402539849,47.99045308493078],[7.890931097790599,47.990455348044634],[7.891200324520469,47.99047563225031],[7.891462258994579,47.9904362373054],[7.891707345843315,47.990392399951816],[7.891938351094723,47.99034998752177],[7.89220355451107,47.99031486734748],[7.8923984337598085,47.99028653651476],[7.8925291914492846,47.990260887891054],[7.892599683254957,47.990242866799235],[7.892889780923724,47.99018151126802],[7.892951052635908,47.99017128534615],[7.893108716234565,47.99014010466635],[7.8931414894759655,47.99013365060091],[7.8934144880622625,47.990063494071364],[7.893446506932378,47.99005435779691],[7.893680697306991,47.98999132588506],[7.893907763063908,47.98992049880326],[7.893941709771752,47.98991379328072],[7.894082693383098,47.98985813744366],[7.894145892933011,47.98982645384967],[7.8943548537790775,47.98976585268974],[7.894531209021807,47.989746406674385],[7.894636485725641,47.98971748910844],[7.894816277548671,47.98966761678457],[7.894885176792741,47.98965336754918],[7.8950858395546675,47.98960332758725],[7.895185248926282,47.98958555795252],[7.89523059502244,47.989579774439335],[7.895308630540967,47.98956988379359],[7.895499067381024,47.98950869590044],[7.895599398761988,47.989491764456034],[7.89569235406816,47.98944306559861],[7.895770641043782,47.98939688131213],[7.895873235538602,47.989349104464054],[7.8959878999739885,47.98926821909845],[7.896020673215389,47.98925304785371],[7.8962217550724745,47.98912815749645],[7.8962429612874985,47.98911684192717],[7.896415293216705,47.98903184942901],[7.89646684192121,47.98900494351983],[7.896627690643072,47.98892430961132],[7.896682173013687,47.9888975713402],[7.896889625117183,47.98877385444939],[7.897057682275772,47.98867511563003],[7.897262116894126,47.988558607175946],[7.897428665310144,47.98847026191652],[7.8974878415465355,47.988442182540894],[7.897648019716144,47.988348891958594],[7.897766791284084,47.98828376457095],[7.897789757698774,47.988273203372955],[7.8979631792753935,47.988150995224714],[7.898149760439992,47.988061644136906],[7.89830063469708,47.98793331719935],[7.898410186171532,47.987750340253115],[7.898522336035967,47.987670712172985],[7.898712186142802,47.98752226866782],[7.898816708475351,47.987415650859475],[7.898858534172177,47.98734599724412],[7.898998344317079,47.9871828854084],[7.899026172235608,47.987142987549305],[7.89914695546031,47.986983731389046],[7.899165898561478,47.9869603458792],[7.899182830005884,47.98692380078137],[7.89924954995513,47.98683880828321],[7.899270253255963,47.9868134111166],[7.899384666234255,47.98663018271327],[7.899494301527739,47.98647427931428],[7.899641655385494,47.986302031204104],[7.899656742811203,47.986283423379064],[7.89974257349968,47.986130537465215],[7.899863105267286,47.98599508590996],[7.899887915700674,47.98595820553601],[7.899986235424876,47.9858479835093],[7.9000768437981606,47.98571110703051],[7.900125961750746,47.985655618831515],[7.900228053331375,47.985533410683274],[7.9003687016665936,47.98537197522819],[7.900388985872269,47.985347248613834],[7.90044522844255,47.98529125750065],[7.900539105758071,47.985209031030536],[7.900723088532686,47.98505689948797],[7.900766674429178,47.98502295278013],[7.900935402140021,47.98488146625459],[7.900955015793443,47.98486235551536],[7.90113128721714,47.984731094911695],[7.901312755420804,47.98460000194609],[7.901501432061195,47.98447192646563],[7.901523560285568,47.98445491120219],[7.901634117588401,47.98438190482557],[7.901705950498581,47.984340162947774],[7.9017844051122665,47.98428148962557],[7.901881970465183,47.984231701120734],[7.902088081464171,47.984098847955465],[7.902127979323268,47.98406548798084],[7.902295114472508,47.98395736142993],[7.902343142777681,47.983926767483354],[7.902514385059476,47.98381897620857],[7.902543218806386,47.98381956294179],[7.902629468590021,47.98385828733444],[7.902652267366648,47.98387287184596],[7.90278235450387,47.98396406695247],[7.902819151058793,47.984022153541446],[7.9027901496738195,47.98405802808702],[7.902641454711556,47.984165819361806],[7.902542212978005,47.98424310050905],[7.902498794719577,47.984271850436926],[7.902345322072506,47.98436966724694],[7.902195118367672,47.98446320928633],[7.902097888290882,47.984549291431904],[7.9020768497139215,47.984566474333405],[7.902031419798732,47.98459840938449],[7.901931339874864,47.984645180404186],[7.901913821697235,47.984660686925054],[7.901761522516608,47.984766298905015],[7.90158080868423,47.98489420674741],[7.901415266096592,47.985037453472614],[7.901322646066546,47.9850968811661],[7.901213262230158,47.985172318294644],[7.901159282773733,47.98523602075875],[7.901136400178075,47.98524683341384],[7.901085941120982,47.9852800257504],[7.900977898389101,47.98534305766225],[7.9009494837373495,47.98536526970565],[7.90085275657475,47.985480604693294],[7.900804141536355,47.98552310094237],[7.900711689144373,47.98562150448561],[7.900619320571423,47.98572175204754],[7.900511110201478,47.9858601372689],[7.900398122146726,47.98600774258375],[7.900269208475947,47.98614554107189],[7.9002371057868,47.986223828047514],[7.900184718891978,47.986315693706274],[7.900083716958761,47.98646564595401],[7.8999826312065125,47.986634289845824],[7.899961927905679,47.98665407113731],[7.899865536019206,47.98673772253096],[7.89983494207263,47.986771082505584],[7.8998061921447515,47.98688390292227],[7.899736035615206,47.987010637298226],[7.8996960539370775,47.987034022808075],[7.899607541039586,47.9871276486665],[7.899547778069973,47.98722370527685],[7.8995090536773205,47.987255305051804],[7.89938835427165,47.98740902915597],[7.899251142516732,47.98755814321339],[7.899148296564817,47.98765428364277],[7.899137986823916,47.98769066110253],[7.899103537201881,47.98775553703308],[7.899098172783852,47.98777020536363],[7.899062884971499,47.987803649157286],[7.898999517783523,47.987853521481156],[7.898838920518756,47.98797522671521],[7.898815451189876,47.987991236150265],[7.8986340668052435,47.98815317451954],[7.898564161732793,47.9882381670177],[7.898547649383545,47.988256523385644],[7.898436253890395,47.98840345814824],[7.898346986621618,47.98853304237127],[7.8982096910476685,47.988640582188964],[7.8981690388172865,47.98867268487811],[7.898149257525802,47.988686515018344],[7.898076921701431,47.98875390551984],[7.89801380597055,47.98877628520131],[7.897769305855036,47.98881350085139],[7.89773284457624,47.98882305622101],[7.897461941465735,47.988893296569586],[7.897241162136197,47.988983653485775],[7.897213585674763,47.988993963226676],[7.896964894607663,47.989090187475085],[7.89678149856627,47.98917098902166],[7.8966122679412365,47.98927081748843],[7.89657580666244,47.98927525989711],[7.896474301815033,47.98933368176222],[7.8963227570056915,47.989396126940846],[7.896132739260793,47.98946829512715],[7.895978512242436,47.98954239115119],[7.895947163924575,47.98955370672047],[7.895740382373333,47.98964984714985],[7.895529912784696,47.989740539342165],[7.895334865897894,47.989800889045],[7.895278371870518,47.98982871696353],[7.895105620846152,47.98991144634783],[7.89504979737103,47.98993851989508],[7.894906047731638,47.98999685794115],[7.894713850691915,47.990060644224286],[7.894559036940336,47.990139769390225],[7.894533388316631,47.990153431892395],[7.894461806863546,47.99018343910575],[7.89443414658308,47.99019408412278],[7.894280590116978,47.99026197753847],[7.894250079989433,47.99027530476451],[7.894062073901296,47.99028863199055],[7.8940273728221655,47.99029097892344],[7.893890915438533,47.99033087678254],[7.893865434452891,47.99034328199923],[7.893644403666258,47.99045844934881],[7.893539126962423,47.99053958617151],[7.893478022888303,47.99056590534747],[7.893248610198498,47.990655675530434],[7.893044175580144,47.99070714041591],[7.892821803689003,47.99072876572609],[7.892745025455952,47.990739243105054],[7.892442438751459,47.99077536910772],[7.892365828156471,47.99077520146966],[7.892299108207226,47.99077629111707],[7.892041029408574,47.99079297110438],[7.891759984195232,47.99080830998719],[7.891724780201912,47.99081392586231],[7.891483213752508,47.99083546735346],[7.891250951215625,47.99089162610471],[7.89110267534852,47.99099950119853],[7.890924056991935,47.99112883396447],[7.89080360904336,47.991198068484664],[7.890602275729179,47.99127258360386],[7.8903221525251865,47.99132379703224],[7.890262054279447,47.99132941290736],[7.890130877494812,47.99133670516312],[7.889952762052417,47.99133653752506],[7.889738185331225,47.99132505431771],[7.889521513134241,47.9913049377501],[7.889255722984672,47.99131214618683],[7.889193445444107,47.991316337138414],[7.888930169865489,47.99136151559651],[7.88875138387084,47.991409627720714],[7.888500597327948,47.991496212780476],[7.888471260666847,47.99150719307363],[7.888325750827789,47.99155597575009],[7.888173451647162,47.99160693772137],[7.887906823307276,47.991653960198164],[7.88763877004385,47.991666784510016],[7.887370632961392,47.99167072400451],[7.887339200824499,47.991670556366444],[7.887304835021496,47.991672065109015],[7.887009372934699,47.99167675897479],[7.886720951646566,47.99168690107763],[7.886688429862261,47.991689248010516],[7.886394392699003,47.9917454905808],[7.8863627929240465,47.991756135597825],[7.886094907298684,47.99180709756911],[7.886067666113377,47.99181397072971],[7.885791566222906,47.99185277894139],[7.885760804638267,47.991855293512344],[7.885489230975509,47.991894353181124],[7.885414967313409,47.99189577810466],[7.8851155657321215,47.99186820164323],[7.885081535205245,47.991865100339055],[7.885043481364846,47.991864178329706],[7.884771069511771,47.99189234152436],[7.884490359574556,47.991935005411506],[7.884382652118802,47.99195461906493],[7.884145276620984,47.99197917804122],[7.883869092911482,47.99200742505491],[7.883835146203637,47.992006754502654],[7.883749986067414,47.992001976817846],[7.883563153445721,47.99199225381017],[7.883287388831377,47.99196735955775],[7.883186135441065,47.99195964820683],[7.883161827921867,47.991958893835545],[7.882969044148922,47.99196761101484],[7.882687831297517,47.99200004898012],[7.882624715566635,47.992012202739716],[7.882517175748944,47.992017986252904],[7.882302263751626,47.992024859413505],[7.8820342104882,47.99203089438379],[7.881862297654152,47.99203089438379],[7.881642105057836,47.99202460795641],[7.881471533328295,47.99201052635908],[7.881317809224129,47.99198169261217],[7.881284784525633,47.991974567994475],[7.881024107336998,47.99192436039448],[7.88088982924819,47.99192201346159],[7.880830066278577,47.99192050471902],[7.880740128457546,47.99192293547094],[7.880643401294947,47.99193911254406],[7.880482468754053,47.99197616055608],[7.880448941141367,47.99198420718312],[7.880390519276261,47.991977501660585],[7.880282895639539,47.99198219552636],[7.880137134343386,47.99196316860616],[7.880054907873273,47.99196467734873],[7.879997994750738,47.99195881001651],[7.879902860149741,47.991934418678284],[7.879640925675631,47.991858227178454],[7.879608739167452,47.99184582196176],[7.879482004791498,47.99181891605258],[7.8793570306152105,47.99177893437445],[7.87917329929769,47.99171095713973],[7.878955705091357,47.9916625097394],[7.878796616569161,47.99157642759383],[7.878769291564822,47.991566034033895],[7.878670888021588,47.991514820605516],[7.878581201657653,47.99147475510836],[7.878390345722437,47.99138640984893],[7.87831038236618,47.99134592525661],[7.87814668379724,47.99129127524793],[7.877910481765866,47.99123059026897],[7.877725912258029,47.991163451224566],[7.877456601709127,47.99108876846731],[7.877188548445702,47.991024227812886],[7.877058796584606,47.99097913317382],[7.8770204074680805,47.99097175709903],[7.876852601766586,47.99095558002591],[7.876589745283127,47.99091392196715],[7.87637148052454,47.9909095633775],[7.876100158318877,47.99089732579887],[7.87599571980536,47.99088902771473],[7.8757943864911795,47.990881484001875],[7.8757290076464415,47.99087821505964],[7.875485513359308,47.99089162610471],[7.8752106707543135,47.99090461805463],[7.874926524236798,47.9909182805568],[7.874893834814429,47.990922052413225],[7.874634666368365,47.99092867411673],[7.874427298083901,47.99095683731139],[7.87427525036037,47.990962620824575],[7.873977357521653,47.99097787588835],[7.873944249004126,47.9909785464406],[7.873642584308982,47.99099505878985],[7.87357016466558,47.9909991659224],[7.8733275923877954,47.99099992029369],[7.873293310403824,47.99099891446531],[7.873080242425203,47.99100494943559],[7.872872874140739,47.99101936630905],[7.872583279386163,47.991034872829914],[7.872550841420889,47.99103990197182],[7.8722794353961945,47.99103914760053],[7.872231658548117,47.99104828387499],[7.872015908360481,47.99107619561255],[7.871735449880362,47.99109337851405],[7.871547946706414,47.991090193390846],[7.871513245627284,47.99109145067632],[7.8712371457368135,47.99110561609268],[7.871198169887066,47.99110410735011],[7.870955932885408,47.991120954975486],[7.870802795514464,47.9911202006042],[7.870692238211632,47.991117518395185],[7.870523007586598,47.991134114563465],[7.870432985946536,47.99114073626697],[7.870245734229684,47.99117258749902],[7.870081532746553,47.99118532799184],[7.869838709011674,47.991195134818554],[7.869671992957592,47.99120242707431],[7.869644667953253,47.99120862968266],[7.86947350949049,47.99122069962323],[7.8693855833262205,47.99123637378216],[7.869278630241752,47.991235200315714],[7.868989119306207,47.99124542623758],[7.868754426017404,47.991254311054945],[7.868727184832096,47.99125892110169],[7.868692483752966,47.991262106224895],[7.868441864848137,47.99129018560052],[7.868316303938627,47.99130829051137],[7.868274059146643,47.99132446758449],[7.868247153237462,47.99128859303892],[7.868254194036126,47.99127023667097],[7.868254696950316,47.99111098051071],[7.8682823572307825,47.990938648581505],[7.868302809074521,47.99093051813543],[7.868336588144302,47.9909285902977],[7.8684681840240955,47.99095558002591],[7.868509758263826,47.99096178263426],[7.868738081306219,47.99097795970738],[7.868801448494196,47.99097703769803],[7.869013259187341,47.990969410166144],[7.869080984964967,47.990965554490685],[7.8693057876080275,47.990951389074326],[7.86948524415493,47.99096672795713],[7.869768301025033,47.99096572212875],[7.8697990626096725,47.9909666441381],[7.870003078132868,47.99097301438451],[7.870029732584953,47.990966476500034],[7.870066864416003,47.99095859751105],[7.87026995792985,47.99095440655947],[7.870514458045363,47.990935714915395],[7.870810171589255,47.99091157503426],[7.8708999417722225,47.99091040156782],[7.87094964645803,47.99092079512775],[7.8710530791431665,47.990913670510054],[7.87112751044333,47.99091149121523],[7.871268913149834,47.990891709923744],[7.8715352062135935,47.99090713262558],[7.871717177331448,47.99089782871306],[7.871754141524434,47.99089782871306],[7.871853299438953,47.99090897664428],[7.872126633301377,47.99090277403593],[7.872364930808544,47.990883998572826],[7.87246098741889,47.99087846651673],[7.872609347105026,47.990859020501375],[7.872796934098005,47.99085239879787],[7.872946718707681,47.99083177931607],[7.873213179409504,47.99082934856415],[7.873475449159741,47.990797497332096],[7.873659264296293,47.99077855423093],[7.873920612037182,47.99075676128268],[7.8741351049393415,47.99073421396315],[7.874248847365379,47.990702698007226],[7.87445361725986,47.99067403189838],[7.874484211206436,47.99067503772676],[7.874612538143992,47.99068098887801],[7.874819822609425,47.99067512154579],[7.875023921951652,47.990679731592536],[7.8751561883836985,47.990679647773504],[7.875220896676183,47.99066824838519],[7.8754256665706635,47.99063463695347],[7.875519460067153,47.990655759349465],[7.875627335160971,47.99067361280322],[7.875891700387001,47.99066640436649],[7.875930843874812,47.9906661529094],[7.876185653731227,47.99065844155848],[7.876434093341231,47.99066917039454],[7.876498801633716,47.990676797926426],[7.8766063414514065,47.99067948013544],[7.876858552917838,47.99070345237851],[7.877133060246706,47.990714935585856],[7.8773644007742405,47.99071015790105],[7.877499517053366,47.990709990262985],[7.877600099891424,47.99072407186031],[7.877788860350847,47.99077427946031],[7.877846779301763,47.990791965276],[7.878061188384891,47.99084024503827],[7.878201333805919,47.990871677175164],[7.878373162820935,47.99096622504294],[7.8785318322479725,47.991039818152785],[7.878699721768498,47.991138976067305],[7.878837436437607,47.99123838543892],[7.879057545214891,47.99135682173073],[7.879227697849274,47.991439970210195],[7.879257453605533,47.99144910648465],[7.879331298172474,47.99148238264024],[7.879401370882988,47.991511803120375],[7.879500025883317,47.991540636867285],[7.879566075280309,47.99154398962855],[7.87962919101119,47.99155153334141],[7.879684427753091,47.991558238863945],[7.879723319783807,47.99157215282321],[7.879869919270277,47.991634011268616],[7.880015596747398,47.99168245866895],[7.880305107682943,47.9917193390429],[7.880522198975086,47.991727804765105],[7.880787821486592,47.99170601181686],[7.881066855043173,47.991696456447244],[7.8810920007526875,47.991701401770115],[7.881388468667865,47.991685224696994],[7.881664987653494,47.991661839187145],[7.881932957097888,47.99164675176144],[7.882129512727261,47.99165337346494],[7.882291786372662,47.99164147116244],[7.882581381127238,47.9916159901768],[7.882779277861118,47.991597382351756],[7.883009947836399,47.99158975481987],[7.883213711902499,47.99157223664224],[7.8834677673876286,47.99156083725393],[7.883730875328183,47.991544073447585],[7.883801702409983,47.99153250642121],[7.8839964140206575,47.991516664624214],[7.884271005168557,47.99149554222822],[7.88454039953649,47.99148271791637],[7.884566802531481,47.99148087389767],[7.884635785594583,47.991481544449925],[7.884842650964856,47.991465367376804],[7.885122522711754,47.991445837542415],[7.885397030040622,47.991431169211864],[7.885441202670336,47.9914291575551],[7.88569794036448,47.991414573043585],[7.885958030819893,47.991385236382484],[7.886200184002519,47.99135807901621],[7.886236058548093,47.99135724082589],[7.886278722435236,47.99135455861688],[7.8864729311317205,47.991351541131735],[7.886746097356081,47.99132346175611],[7.886917758733034,47.99131013453007],[7.887049103155732,47.991288090124726],[7.88730408065021,47.99123503267765],[7.887566098943353,47.99117971211672],[7.887662071734667,47.99117116257548],[7.887827614322305,47.99114861525595],[7.887889724224806,47.991134533658624],[7.888149982318282,47.99107393249869],[7.888178480789065,47.99106638878584],[7.888238243758678,47.991060772910714],[7.888491963967681,47.991023641079664],[7.888758843764663,47.9909803904593],[7.888860264793038,47.99096672795713],[7.889140555635095,47.990918615832925],[7.889400394633412,47.990870755165815],[7.88943300023675,47.990863965824246],[7.889493852853775,47.99085742793977],[7.889657719060779,47.99082029610872],[7.889925185590982,47.990753995254636],[7.890207739546895,47.990710912272334],[7.890479313209653,47.99066523090005],[7.890544021502137,47.990651316940784],[7.890745270997286,47.99061678349972],[7.890810817480087,47.99051729030907],[7.8907974902540445,47.99032241106033],[7.890793634578586,47.99029785208404],[7.890704702585936,47.99012577161193],[7.89069858379662,47.99010205082595],[7.890606466680765,47.989928210154176],[7.890591882169247,47.989890575408936],[7.89057201705873,47.98984732478857],[7.890514936298132,47.98971505835652],[7.890459196642041,47.98957508057356],[7.890423573553562,47.989482963457704],[7.8903913870453835,47.989388667047024],[7.890342939645052,47.98925204202533],[7.890286277979612,47.98913301900029],[7.890225928276777,47.98905950970948],[7.890161471441388,47.98900502733886],[7.8900635708123446,47.98897912725806],[7.890033731237054,47.988984156399965],[7.889740029349923,47.989027071744204],[7.889472981914878,47.989042326807976],[7.889197301119566,47.98905213363469],[7.889157235622406,47.98905523493886],[7.8889103047549725,47.989066215232015],[7.88882615044713,47.988986084237695],[7.888781642541289,47.98887779004872],[7.888772673904896,47.988853650167584],[7.88875968195498,47.988782403990626],[7.8887618612498045,47.98880469985306],[7.888778960332274,47.98887988552451],[7.88881097920239,47.989030005410314],[7.888831095770001,47.989041823893785],[7.888922123238444,47.98906940035522],[7.888950454071164,47.98907250165939],[7.889107447117567,47.98907191492617],[7.889119014143944,47.98906093463302],[7.889132257550955,47.98905733041465],[7.889123875647783,47.98905079253018],[7.889124294742942,47.989048697054386],[7.889124630019069,47.989048697054386],[7.889130162075162,47.989048697054386],[7.88913594558835,47.98905070871115],[7.889299811795354,47.9890341963619],[7.889323364943266,47.98902346752584],[7.889398969709873,47.989006200805306],[7.889435514807701,47.98897954635322],[7.889433419331908,47.988982731476426],[7.889420259743929,47.9889995791018],[7.889465689659119,47.9889686498791],[7.8894934337586164,47.988952891901135],[7.889565015211701,47.98890477977693],[7.889603991061449,47.988888854160905],[7.889611283317208,47.98888893797994],[7.889600973576307,47.98889354802668],[7.889575157314539,47.98890729434788],[7.889570044353604,47.988912742584944],[7.889568619430065,47.98891223967075],[7.889568619430065,47.98891223967075],[7.889568619430065,47.98891223967075],[7.889564763754606,47.988912742584944],[7.8895440604537725,47.98891601152718],[7.8895434737205505,47.98891852609813],[7.889446327462792,47.98890855163336],[7.889444651082158,47.98891307786107],[7.889442723244429,47.988916765898466],[7.889438113197684,47.988920621573925],[7.889418415725231,47.98894082196057],[7.889413554221392,47.9889599326998],[7.889393521472812,47.98895699903369],[7.889398047700524,47.988953897729516],[7.889398382976651,47.98895498737693],[7.889396203681827,47.988961692899466],[7.88944280706346,47.98897610977292],[7.8894619178026915,47.98901223577559],[7.889446495100856,47.988996896892786],[7.889463761821389,47.98899555578828],[7.8894521947950125,47.98897543922067],[7.889446495100856,47.98897066153586],[7.889442136511207,47.9889649618417],[7.889447836205363,47.98895783722401],[7.889448506757617,47.98895515501499],[7.889450769871473,47.98895062878728],[7.889442890882492,47.98893939703703],[7.889441214501858,47.988935289904475],[7.889442974701524,47.988935289904475],[7.8894465789198875,47.988939648494124],[7.889448758214712,47.98894233070314],[7.889449428766966,47.98894367180765],[7.889449261128902,47.98894283361733],[7.889449428766966,47.98894283361733],[7.889449596405029,47.98894283361733],[7.889448758214712,47.98894627019763],[7.889447920024395,47.9889530595392],[7.889447836205363,47.98895171843469],[7.889447920024395,47.98895171843469],[7.8894476685673,47.98895171843469],[7.889447249472141,47.98895230516791],[7.8894471656531096,47.98895222134888],[7.889447081834078,47.98895213752985],[7.889446998015046,47.98895222134888],[7.889446662738919,47.98895222134888],[7.889446411281824,47.98895230516791],[7.889446076005697,47.98895247280598],[7.889446076005697,47.98895255662501],[7.889445824548602,47.98895255662501],[7.889445908367634,47.988953310996294],[7.889445908367634,47.98895347863436],[7.889433838427067,47.98894534818828],[7.889435347169638,47.98894333653152],[7.889427468180656,47.98896588385105],[7.889404920861125,47.98898180946708],[7.88939343765378,47.98898784443736],[7.889364520087838,47.98901022411883],[7.889334512874484,47.989025730639696],[7.8892807848751545,47.98905096016824],[7.889251196756959,47.98904836177826],[7.889186153188348,47.98905431292951],[7.889135358855128,47.98905288800597],[7.889116918668151,47.989080464467406],[7.889113901183009,47.989086331799626],[7.889113901183009,47.989085828885436],[7.889244658872485,47.98906143754721]]}}],"meta":{"lapKm":6.706,"points":651}}